SL-16 R/B               
1 22566U 93016B   26053.79635292  .00000025  00000+0  37500-4 0  9994
2 22566  71.0043 246.4634 0010853 334.6314  25.4275 14.15300085700063
COSMOS 2242             
1 22626U 93024A   26053.72533256  .00001783  00000+0  15439-3 0  9998
2 22626  82.5169 281.0319 0016445   1.0937 359.0318 14.96482557778153
SL-16 R/B               
1 22803U 93059B   26053.65483917  .00000150  00000+0  98106-4 0  9993
2 22803  70.9899  42.8311 0019122 237.2173 122.7109 14.17228014677404
ARIANE 40 R/B           
1 22830U 93061H   26053.68497677  .00000187  00000+0  84335-4 0  9996
2 22830  98.4950 122.8666 0009984 333.9382  26.1298 14.32852227691958
COSMOS 2278             
1 23087U 94023A   26053.81643274  .00000369  00000+0  21746-3 0  9999
2 23087  71.0520 206.2127 0007270  42.8146 317.3542 14.14368093642701
SL-16 R/B               
1 23088U 94023B   26053.58686257  .00000219  00000+0  13779-3 0  9993
2 23088  70.9991 102.6071 0005071 299.6886  60.3732 14.15011505643957
SL-16 R/B               
1 23343U 94074B   26053.65293006  .00000464  00000+0  68840-4 0  9999
2 23343  97.7131  85.0782 0005120 270.6714 204.1095 14.79388548685029
SL-16 R/B               
1 23405U 94077B   26053.64501892 -.00000010  00000+0  19375-4 0  9992
2 23405  70.9842  24.1377 0003806 228.1342 131.9456 14.15564031614100
ARIANE 40+ R/B          
1 23561U 95021B   26053.68414115  .00000276  00000+0  10203-3 0  9993
2 23561  98.4529 125.3675 0006894 177.7284 333.7081 14.39760487617084
SL-16 R/B               
1 23705U 95058B   26053.65125581 -.00000220  00000+0 -88340-4 0  9995
2 23705  71.0201 211.8258 0011308 152.3370 207.8357 14.15494799565721
SL-16 R/B               
1 24298U 96051B   26053.72694824  .00000098  00000+0  79618-4 0  9995
2 24298  70.7582 206.9076 0016416 169.6163 190.5299 14.12411348519533
ORBVIEW 2 (SEASTAR)     
1 24883U 97037A   26053.71068854  .00000290  00000+0  11693-3 0  9999
2 24883  98.8539 217.6276 0003190 101.9246 258.2296 14.35482127506323
