CCSDS_OMM_VERS = 2.0
CREATION_DATE  = 
ORIGINATOR     = 

OBJECT_NAME    = SL-16 R/B
OBJECT_ID      = 1993-016B
CENTER_NAME    = EARTH
REF_FRAME      = TEME
TIME_SYSTEM    = UTC
MEAN_ELEMENT_THEORY = SGP/SGP4

EPOCH          = 2026-02-22T19:06:44.892288
MEAN_MOTION    = 14.15300085
ECCENTRICITY   = .0010853
INCLINATION    = 71.0043
RA_OF_ASC_NODE = 246.4634
ARG_OF_PERICENTER = 334.6314
MEAN_ANOMALY   = 25.4275

EPHEMERIS_TYPE = 0
CLASSIFICATION_TYPE = U
NORAD_CAT_ID   = 22566
ELEMENT_SET_NO = 999
REV_AT_EPOCH   = 70006
BSTAR          = .375E-4
MEAN_MOTION_DOT = .25E-6
MEAN_MOTION_DDOT = 0

CCSDS_OMM_VERS = 2.0
CREATION_DATE  = 
ORIGINATOR     = 

OBJECT_NAME    = COSMOS 2242
OBJECT_ID      = 1993-024A
CENTER_NAME    = EARTH
REF_FRAME      = TEME
TIME_SYSTEM    = UTC
MEAN_ELEMENT_THEORY = SGP/SGP4

EPOCH          = 2026-02-22T17:24:28.733184
MEAN_MOTION    = 14.96482557
ECCENTRICITY   = .0016445
INCLINATION    = 82.5169
RA_OF_ASC_NODE = 281.0319
ARG_OF_PERICENTER = 1.0937
MEAN_ANOMALY   = 359.0318

EPHEMERIS_TYPE = 0
CLASSIFICATION_TYPE = U
NORAD_CAT_ID   = 22626
ELEMENT_SET_NO = 999
REV_AT_EPOCH   = 77815
BSTAR          = .15439E-3
MEAN_MOTION_DOT = .1783E-4
MEAN_MOTION_DDOT = 0

CCSDS_OMM_VERS = 2.0
CREATION_DATE  = 
ORIGINATOR     = 

OBJECT_NAME    = SL-16 R/B
OBJECT_ID      = 1993-059B
CENTER_NAME    = EARTH
REF_FRAME      = TEME
TIME_SYSTEM    = UTC
MEAN_ELEMENT_THEORY = SGP/SGP4

EPOCH          = 2026-02-22T15:42:58.104288
MEAN_MOTION    = 14.17228014
ECCENTRICITY   = .0019122
INCLINATION    = 70.9899
RA_OF_ASC_NODE = 42.8311
ARG_OF_PERICENTER = 237.2173
MEAN_ANOMALY   = 122.7109

EPHEMERIS_TYPE = 0
CLASSIFICATION_TYPE = U
NORAD_CAT_ID   = 22803
ELEMENT_SET_NO = 999
REV_AT_EPOCH   = 67740
BSTAR          = .98106E-4
MEAN_MOTION_DOT = .15E-5
MEAN_MOTION_DDOT = 0

CCSDS_OMM_VERS = 2.0
CREATION_DATE  = 
ORIGINATOR     = 

OBJECT_NAME    = ARIANE 40 R/B
OBJECT_ID      = 1993-061H
CENTER_NAME    = EARTH
REF_FRAME      = TEME
TIME_SYSTEM    = UTC
MEAN_ELEMENT_THEORY = SGP/SGP4

EPOCH          = 2026-02-22T16:26:21.992928
MEAN_MOTION    = 14.32852227
ECCENTRICITY   = .0009984
INCLINATION    = 98.4950
RA_OF_ASC_NODE = 122.8666
ARG_OF_PERICENTER = 333.9382
MEAN_ANOMALY   = 26.1298

EPHEMERIS_TYPE = 0
CLASSIFICATION_TYPE = U
NORAD_CAT_ID   = 22830
ELEMENT_SET_NO = 999
REV_AT_EPOCH   = 69195
BSTAR          = .84335E-4
MEAN_MOTION_DOT = .187E-5
MEAN_MOTION_DDOT = 0

CCSDS_OMM_VERS = 2.0
CREATION_DATE  = 
ORIGINATOR     = 

OBJECT_NAME    = COSMOS 2278
OBJECT_ID      = 1994-023A
CENTER_NAME    = EARTH
REF_FRAME      = TEME
TIME_SYSTEM    = UTC
MEAN_ELEMENT_THEORY = SGP/SGP4

EPOCH          = 2026-02-22T19:35:39.788736
MEAN_MOTION    = 14.14368093
ECCENTRICITY   = .000727
INCLINATION    = 71.0520
RA_OF_ASC_NODE = 206.2127
ARG_OF_PERICENTER = 42.8146
MEAN_ANOMALY   = 317.3542

EPHEMERIS_TYPE = 0
CLASSIFICATION_TYPE = U
NORAD_CAT_ID   = 23087
ELEMENT_SET_NO = 999
REV_AT_EPOCH   = 64270
BSTAR          = .21746E-3
MEAN_MOTION_DOT = .369E-5
MEAN_MOTION_DDOT = 0

CCSDS_OMM_VERS = 2.0
CREATION_DATE  = 
ORIGINATOR     = 

OBJECT_NAME    = SL-16 R/B
OBJECT_ID      = 1994-023B
CENTER_NAME    = EARTH
REF_FRAME      = TEME
TIME_SYSTEM    = UTC
MEAN_ELEMENT_THEORY = SGP/SGP4

EPOCH          = 2026-02-22T14:05:04.926048
MEAN_MOTION    = 14.15011505
ECCENTRICITY   = .0005071
INCLINATION    = 70.9991
RA_OF_ASC_NODE = 102.6071
ARG_OF_PERICENTER = 299.6886
MEAN_ANOMALY   = 60.3732

EPHEMERIS_TYPE = 0
CLASSIFICATION_TYPE = U
NORAD_CAT_ID   = 23088
ELEMENT_SET_NO = 999
REV_AT_EPOCH   = 64395
BSTAR          = .13779E-3
MEAN_MOTION_DOT = .219E-5
MEAN_MOTION_DDOT = 0

CCSDS_OMM_VERS = 2.0
CREATION_DATE  = 
ORIGINATOR     = 

OBJECT_NAME    = SL-16 R/B
OBJECT_ID      = 1994-074B
CENTER_NAME    = EARTH
REF_FRAME      = TEME
TIME_SYSTEM    = UTC
MEAN_ELEMENT_THEORY = SGP/SGP4

EPOCH          = 2026-02-22T15:40:13.157184
MEAN_MOTION    = 14.79388548
ECCENTRICITY   = .000512
INCLINATION    = 97.7131
RA_OF_ASC_NODE = 85.0782
ARG_OF_PERICENTER = 270.6714
MEAN_ANOMALY   = 204.1095

EPHEMERIS_TYPE = 0
CLASSIFICATION_TYPE = U
NORAD_CAT_ID   = 23343
ELEMENT_SET_NO = 999
REV_AT_EPOCH   = 68502
BSTAR          = .6884E-4
MEAN_MOTION_DOT = .464E-5
MEAN_MOTION_DDOT = 0

CCSDS_OMM_VERS = 2.0
CREATION_DATE  = 
ORIGINATOR     = 

OBJECT_NAME    = SL-16 R/B
OBJECT_ID      = 1994-077B
CENTER_NAME    = EARTH
REF_FRAME      = TEME
TIME_SYSTEM    = UTC
MEAN_ELEMENT_THEORY = SGP/SGP4

EPOCH          = 2026-02-22T15:28:49.634688
MEAN_MOTION    = 14.15564031
ECCENTRICITY   = .0003806
INCLINATION    = 70.9842
RA_OF_ASC_NODE = 24.1377
ARG_OF_PERICENTER = 228.1342
MEAN_ANOMALY   = 131.9456

EPHEMERIS_TYPE = 0
CLASSIFICATION_TYPE = U
NORAD_CAT_ID   = 23405
ELEMENT_SET_NO = 999
REV_AT_EPOCH   = 61410
BSTAR          = .19375E-4
MEAN_MOTION_DOT = -.1E-6
MEAN_MOTION_DDOT = 0

CCSDS_OMM_VERS = 2.0
CREATION_DATE  = 
ORIGINATOR     = 

OBJECT_NAME    = ARIANE 40+ R/B
OBJECT_ID      = 1995-021B
CENTER_NAME    = EARTH
REF_FRAME      = TEME
TIME_SYSTEM    = UTC
MEAN_ELEMENT_THEORY = SGP/SGP4

EPOCH          = 2026-02-22T16:25:09.795360
MEAN_MOTION    = 14.39760487
ECCENTRICITY   = .0006894
INCLINATION    = 98.4529
RA_OF_ASC_NODE = 125.3675
ARG_OF_PERICENTER = 177.7284
MEAN_ANOMALY   = 333.7081

EPHEMERIS_TYPE = 0
CLASSIFICATION_TYPE = U
NORAD_CAT_ID   = 23561
ELEMENT_SET_NO = 999
REV_AT_EPOCH   = 61708
BSTAR          = .10203E-3
MEAN_MOTION_DOT = .276E-5
MEAN_MOTION_DDOT = 0

CCSDS_OMM_VERS = 2.0
CREATION_DATE  = 
ORIGINATOR     = 

OBJECT_NAME    = SL-16 R/B
OBJECT_ID      = 1995-058B
CENTER_NAME    = EARTH
REF_FRAME      = TEME
TIME_SYSTEM    = UTC
MEAN_ELEMENT_THEORY = SGP/SGP4

EPOCH          = 2026-02-22T15:37:48.501984
MEAN_MOTION    = 14.15494799
ECCENTRICITY   = .0011308
INCLINATION    = 71.0201
RA_OF_ASC_NODE = 211.8258
ARG_OF_PERICENTER = 152.3370
MEAN_ANOMALY   = 207.8357

EPHEMERIS_TYPE = 0
CLASSIFICATION_TYPE = U
NORAD_CAT_ID   = 23705
ELEMENT_SET_NO = 999
REV_AT_EPOCH   = 56572
BSTAR          = -.8834E-4
MEAN_MOTION_DOT = -.22E-5
MEAN_MOTION_DDOT = 0

CCSDS_OMM_VERS = 2.0
CREATION_DATE  = 
ORIGINATOR     = 

OBJECT_NAME    = SL-16 R/B
OBJECT_ID      = 1996-051B
CENTER_NAME    = EARTH
REF_FRAME      = TEME
TIME_SYSTEM    = UTC
MEAN_ELEMENT_THEORY = SGP/SGP4

EPOCH          = 2026-02-22T17:26:48.327936
MEAN_MOTION    = 14.12411348
ECCENTRICITY   = .0016416
INCLINATION    = 70.7582
RA_OF_ASC_NODE = 206.9076
ARG_OF_PERICENTER = 169.6163
MEAN_ANOMALY   = 190.5299

EPHEMERIS_TYPE = 0
CLASSIFICATION_TYPE = U
NORAD_CAT_ID   = 24298
ELEMENT_SET_NO = 999
REV_AT_EPOCH   = 51953
BSTAR          = .79618E-4
MEAN_MOTION_DOT = .98E-6
MEAN_MOTION_DDOT = 0

CCSDS_OMM_VERS = 2.0
CREATION_DATE  = 
ORIGINATOR     = 

OBJECT_NAME    = ORBVIEW 2 (SEASTAR)
OBJECT_ID      = 1997-037A
CENTER_NAME    = EARTH
REF_FRAME      = TEME
TIME_SYSTEM    = UTC
MEAN_ELEMENT_THEORY = SGP/SGP4

EPOCH          = 2026-02-22T17:03:23.489856
MEAN_MOTION    = 14.35482127
ECCENTRICITY   = .000319
INCLINATION    = 98.8539
RA_OF_ASC_NODE = 217.6276
ARG_OF_PERICENTER = 101.9246
MEAN_ANOMALY   = 258.2296

EPHEMERIS_TYPE = 0
CLASSIFICATION_TYPE = U
NORAD_CAT_ID   = 24883
ELEMENT_SET_NO = 999
REV_AT_EPOCH   = 50632
BSTAR          = .11693E-3
MEAN_MOTION_DOT = .29E-5
MEAN_MOTION_DDOT = 0

